[{"OBJECT_NAME":"STARLINK-34628","OBJECT_ID":"2025-152Y","EPOCH":"2026-03-09T14:01:51.313152","MEAN_MOTION":15.05660627,"ECCENTRICITY":0.0002788,"INCLINATION":97.6017,"RA_OF_ASC_NODE":285.438,"ARG_OF_PERICENTER":71.4734,"MEAN_ANOMALY":288.6796,"EPHEMERIS_TYPE":0,"CLASSIFICATION_TYPE":"U","NORAD_CAT_ID":64864,"ELEMENT_SET_NO":999,"REV_AT_EPOCH":3540,"BSTAR":0.00042597,"MEAN_MOTION_DOT":6.093e-5,"MEAN_MOTION_DDOT":0},{"OBJECT_NAME":"CZ-6A DEB","OBJECT_ID":"2024-140WE","EPOCH":"2026-03-09T15:35:26.811168","MEAN_MOTION":14.69407042,"ECCENTRICITY":0.0170896,"INCLINATION":89.1194,"RA_OF_ASC_NODE":289.5546,"ARG_OF_PERICENTER":162.1141,"MEAN_ANOMALY":198.6195,"EPHEMERIS_TYPE":0,"CLASSIFICATION_TYPE":"U","NORAD_CAT_ID":61365,"ELEMENT_SET_NO":999,"REV_AT_EPOCH":8091,"BSTAR":0.00023823,"MEAN_MOTION_DOT":1.788e-5,"MEAN_MOTION_DDOT":0}]
